OBJECT_NAME,OBJECT_ID,EPOCH,MEAN_MOTION,ECCENTRICITY,INCLINATION,RA_OF_ASC_NODE,ARG_OF_PERICENTER,MEAN_ANOMALY,EPHEMERIS_TYPE,CLASSIFICATION_TYPE,NORAD_CAT_ID,ELEMENT_SET_NO,REV_AT_EPOCH,BSTAR,MEAN_MOTION_DOT,MEAN_MOTION_DDOT
H-2A R/B,2006-002B,2026-06-28T22:02:53.278944,15.18214861,.00499385,98.2571,336.8104,221.6296,138.1130,0,U,28932,999,11130,.37096368E-3,.7758E-4,0
RESURS-DK 1,2006-021A,2026-06-28T19:14:16.137024,15.13263406,.00067174,69.9339,309.4882,286.1035,73.9391,0,U,29228,999,10433,.12230542E-3,.2072E-4,0
CZ-4B R/B,2006-046C,2026-06-28T17:22:29.636832,15.17865055,.00311966,97.5447,224.2953,240.5967,119.2152,0,U,29507,999,7688,.188024E-3,.3784E-4,0
CZ-2C R/B,2007-010B,2026-06-28T21:29:09.988800,14.20278524,.00583426,98.4109,287.6741,331.9390,27.8646,0,U,31114,999,99550,.48751764E-4,.64E-6,0
COSMO-SKYMED 1,2007-023A,2026-06-28T23:09:32.752224,14.97161713,.00016753,97.8858,11.9202,86.5600,273.5813,0,U,31598,999,3155,.19422424E-3,.2184E-4,0
COSMOS 2428,2007-029A,2026-06-28T19:48:02.092608,14.12928101,.00071318,70.9374,330.0413,112.7272,247.4603,0,U,31792,999,97979,.35138937E-4,.18E-6,0
SL-16 R/B,2007-029B,2026-06-28T19:02:00.428928,14.14854221,.00024533,70.9770,298.8314,263.2113,250.4070,0,U,31793,999,98108,-.10113582E-3,-.243E-5,0
KORONAS-FOTON,2009-003A,2026-06-28T23:44:29.124672,15.45967100,.00125384,82.4286,159.9455,110.9694,249.2897,0,U,33504,999,96292,.24099745E-3,.11815E-3,0
CZ-2C R/B,2011-030B,2026-06-28T20:37:18.369696,14.81499007,.00520447,97.8660,135.0350,350.2384,63.3620,0,U,37731,999,80655,.16133249E-3,.1239E-4,0
H-2A R/B,2012-025E,2026-06-28T22:20:16.950336,14.95770131,.0042821,98.4820,156.0445,309.6789,50.0656,0,U,38341,999,76484,.22408163E-3,.2473E-4,0
SHIJIAN-16 (SJ-16),2013-057A,2026-06-28T23:15:31.187808,14.92622844,.00164482,74.9728,334.3667,203.2278,156.8169,0,U,39358,999,68810,.40078772E-4,.384E-5,0
SL-4 R/B,2014-021B,2026-06-28T22:09:25.129728,15.42180287,.00906116,51.6038,153.2660,148.7771,211.8641,0,U,39679,999,67342,.20340654E-3,.9832E-4,0
ALOS-2,2014-029A,2026-06-28T21:46:29.810208,14.79472551,.00016209,97.9228,276.9030,90.3673,269.7724,0,U,39766,999,65331,.22620721E-3,.1638E-4,0
YAOGAN-29,2015-069A,2026-06-28T23:37:57.305856,14.83095871,.00019863,98.0026,208.6357,37.1995,322.9356,0,U,41038,999,57237,.88228624E-4,.664E-5,0
ASTRO-H (HITOMI),2016-012A,2026-06-28T19:06:50.034816,15.10561911,.00096666,31.0006,359.2097,9.4566,350.6253,0,U,41337,999,56904,.14716717E-3,.2586E-4,0
HXMT (HUIYAN),2017-034A,2026-06-28T23:22:51.379392,15.18557570,.00323695,43.0141,117.4029,221.8473,137.9900,0,U,42758,999,49945,.19696572E-3,.3956E-4,0
SAOCOM 1A,2018-076A,2026-06-28T22:48:34.529760,14.82159180,.00015963,97.8881,6.5279,82.1064,278.0330,0,U,43641,999,41784,.14243451E-3,.1082E-4,0
H-2A R/B,2018-084L,2026-06-28T17:14:43.844064,15.45593544,.00221172,98.8564,61.1315,0.8160,359.3116,0,U,43682,999,42290,.39465179E-3,.19066E-3,0
SAOCOM 1B,2020-059A,2026-06-28T23:33:29.013120,14.82146679,.00015803,97.8883,5.6543,80.7365,279.4027,0,U,46265,999,31523,.18204146E-4,.93E-6,0
CSS (TIANHE),2021-035A,2026-06-28T14:53:48.360768,15.61304526,.00083389,41.4685,252.3977,172.7064,187.3897,0,U,48274,999,29495,.23071257E-3,.19914E-3,0
CZ-2C R/B,2022-058K,2026-06-28T22:43:58.342656,15.62665972,.00317062,50.1856,102.2910,315.9536,43.8912,0,U,52794,999,22748,.37811628E-3,.35081E-3,0
CZ-2C R/B,2022-132E,2026-06-28T22:15:30.529152,15.72935446,.00135711,97.2887,187.4860,46.7220,313.5174,0,U,54039,999,20779,.44809135E-3,.61325E-3,0
GSLV R/B,2022-138AN,2026-06-28T19:31:30.651744,14.97310788,.00240693,87.3813,129.0802,105.2859,255.1035,0,U,54149,999,20055,.23398094E-3,.2757E-4,0
XRISM,2023-137A,2026-06-28T17:44:45.897504,15.12561974,.00077594,31.0026,284.7677,80.1287,280.0227,0,U,57800,999,15461,.23687663E-3,.4334E-4,0
ACS3,2024-077B,2026-06-27T12:55:29.040384,13.94525140,.00981095,97.1675,95.0246,55.4134,305.6240,0,U,59588,999,10948,.6032734E-3,.81E-5,0
CZ-8A R/B,2025-231K,2026-06-28T20:39:30.709440,14.30157877,.01164912,50.0055,349.6516,265.1019,93.6588,0,U,66004,999,3661,.59683009E-4,.4E-7,0
SZ-21 MODULE,2025-246C,2026-06-28T11:44:21.804000,15.77365828,.00049281,41.4709,236.8874,83.9244,276.2163,0,U,66515,999,3552,.24764307E-3,.42023E-3,0
