H-2A R/B                
1 28932U 06002B   26179.91867221  .00007758  00000+0  37096-3 0  9997
2 28932  98.2571 336.8104 0049938 221.6296 138.1130 15.18214861111304
RESURS-DK 1             
1 29228U 06021A   26179.80157566  .00002072  00000+0  12231-3 0  9997
2 29228  69.9339 309.4882 0006717 286.1035  73.9391 15.13263406104338
CZ-4B R/B               
1 29507U 06046C   26179.72395413  .00003784  00000+0  18802-3 0  9991
2 29507  97.5447 224.2953 0031196 240.5967 119.2152 15.17865055 76884
CZ-2C R/B               
1 31114U 07010B   26179.89525450  .00000064  00000+0  48752-4 0  9990
2 31114  98.4109 287.6741 0058342 331.9390  27.8646 14.20278524995504
COSMO-SKYMED 1          
1 31598U 07023A   26179.96496241  .00002184  00000+0  19422-3 0  9999
2 31598  97.8858  11.9202 0001675  86.5600 273.5813 14.97161713 31555
COSMOS 2428             
1 31792U 07029A   26179.82502422  .00000018  00000+0  35139-4 0  9993
2 31792  70.9374 330.0413 0007131 112.7272 247.4603 14.12928101979798
SL-16 R/B               
1 31793U 07029B   26179.79306052 -.00000243  00000+0 -10114-3 0  9998
2 31793  70.9770 298.8314 0002453 263.2113 250.4070 14.14854221981088
KORONAS-FOTON           
1 33504U 09003A   26179.98922598  .00011815  00000+0  24100-3 0  9999
2 33504  82.4286 159.9455 0012538 110.9694 249.2897 15.45967100962921
CZ-2C R/B               
1 37731U 11030B   26179.85924039  .00001239  00000+0  16133-3 0  9992
2 37731  97.8660 135.0350 0052044 350.2384  63.3620 14.81499007806553
H-2A R/B                
1 38341U 12025E   26179.93075174  .00002473  00000+0  22408-3 0  9994
2 38341  98.4820 156.0445 0042821 309.6789  50.0656 14.95770131764845
SHIJIAN-16 (SJ-16)      
1 39358U 13057A   26179.96911097  .00000384  00000+0  40079-4 0  9999
2 39358  74.9728 334.3667 0016448 203.2278 156.8169 14.92622844688107
SL-4 R/B                
1 39679U 14021B   26179.92320752  .00009832  00000+0  20341-3 0  9991
2 39679  51.6038 153.2660 0090611 148.7771 211.8641 15.42180287673427
ALOS-2                  
1 39766U 14029A   26179.90728947  .00001638  00000+0  22621-3 0  9991
2 39766  97.9228 276.9030 0001620  90.3673 269.7724 14.79472551653314
YAOGAN-29               
1 41038U 15069A   26179.98469104  .00000664  00000+0  88229-4 0  9991
2 41038  98.0026 208.6357 0001986  37.1995 322.9356 14.83095871572372
ASTRO-H (HITOMI)        
1 41337U 16012A   26179.79641244  .00002586  00000+0  14717-3 0  9993
2 41337  31.0006 359.2097 0009666   9.4566 350.6253 15.10561911569040
HXMT (HUIYAN)           
1 42758U 17034A   26179.97420578  .00003956  00000+0  19697-3 0  9995
2 42758  43.0141 117.4029 0032369 221.8473 137.9900 15.18557570499459
SAOCOM 1A               
1 43641U 18076A   26179.95039965  .00001082  00000+0  14243-3 0  9998
2 43641  97.8881   6.5279 0001596  82.1064 278.0330 14.82159180417848
H-2A R/B                
1 43682U 18084L   26179.71856301  .00019066  00000+0  39465-3 0  9991
2 43682  98.8564  61.1315 0022117   0.8160 359.3116 15.45593544422900
SAOCOM 1B               
1 46265U 20059A   26179.98158580  .00000093  00000+0  18204-4 0  9998
2 46265  97.8883   5.6543 0001580  80.7365 279.4027 14.82146679315237
CSS (TIANHE)            
1 48274U 21035A   26179.62069862  .00019914  00000+0  23071-3 0  9999
2 48274  41.4685 252.3977 0008338 172.7064 187.3897 15.61304526294954
CZ-2C R/B               
1 52794U 22058K   26179.94720304  .00035081  00000+0  37812-3 0  9998
2 52794  50.1856 102.2910 0031706 315.9536  43.8912 15.62665972227487
CZ-2C R/B               
1 54039U 22132E   26179.92743668  .00061325  00000+0  44809-3 0  9995
2 54039  97.2887 187.4860 0013571  46.7220 313.5174 15.72935446207791
GSLV R/B                
1 54149U 22138AN  26179.81354921  .00002757  00000+0  23398-3 0  9995
2 54149  87.3813 129.0802 0024069 105.2859 255.1035 14.97310788200559
XRISM                   
1 57800U 23137A   26179.73942011  .00004334  00000+0  23688-3 0  9991
2 57800  31.0026 284.7677 0007759  80.1287 280.0227 15.12561974154618
ACS3                    
1 59588U 24077B   26178.53853056  .00000810  00000+0  60327-3 0  9993
2 59588  97.1675  95.0246 0098109  55.4134 305.6240 13.94525140109483
CZ-8A R/B               
1 66004U 25231K   26179.86077210  .00000004  00000+0  59683-4 0  9993
2 66004  50.0055 349.6516 0116491 265.1019  93.6588 14.30157877 36611
SZ-21 MODULE            
1 66515U 25246C   26179.48914125  .00042023  00000+0  24764-3 0  9997
2 66515  41.4709 236.8874 0004928  83.9244 276.2163 15.77365828 35525
